FENGYUN 1C DEB          
1 29919U 99025HR  26087.93991457  .00000162  00000+0  16335-3 0  9994
2 29919  98.4949 237.3458 0138396  53.0935  67.1435 13.85186935970058
FENGYUN 1C DEB          
1 29920U 99025HS  26088.02377953  .00001414  00000+0  85700-3 0  9999
2 29920  98.3871 299.4358 0125521 339.9629  19.6635 14.04016843977797
FENGYUN 1C DEB          
1 29921U 99025HT  26087.99263465  .00000355  00000+0  23683-3 0  9992
2 29921  98.7880  96.0761 0046501 129.5614 285.9135 14.06791698983709
FENGYUN 1C DEB          
1 29922U 99025HU  26088.13832891 -.00000036  00000+0  52082-5 0  9999
2 29922  99.1150 150.0883 0093656  74.8995 286.2507 13.98645164979289
FENGYUN 1C DEB          
1 29923U 99025HV  26088.01423326  .00000866  00000+0  47654-3 0  9993
2 29923  98.6880  98.3475 0016393 225.2534 191.5416 14.14120398987775
FENGYUN 1C DEB          
1 29924U 99025HW  26087.78880087  .00000199  00000+0  13944-3 0  9992
2 29924  98.7313 102.4543 0026104 320.2073 218.7665 14.08923591987010
FENGYUN 1C DEB          
1 29926U 99025HY  26087.92658066  .00001715  00000+0  45113-3 0  9998
2 29926  98.2947  77.4752 0248048 343.4669  75.3001 14.33673479  1017
FENGYUN 1C DEB          
1 29927U 99025HZ  26088.03536015  .00017976  00000+0  24284-2 0  9992
2 29927  99.0720 130.1632 0016472 232.6422 188.4363 14.79037686  2157
FENGYUN 1C DEB          
1 29928U 99025JA  26088.02097659  .00000769  00000+0  62846-3 0  9997
2 29928  99.5724 120.0992 0143267 179.6809 212.7366 13.88276527969666
FENGYUN 1C DEB          
1 29929U 99025JB  26088.02824620  .00001818  00000+0  11362-2 0  9996
2 29929  98.6286   6.5477 0128560 239.8523 140.2985 14.01904351974451
FENGYUN 1C DEB          
1 29930U 99025JC  26088.12015903  .00000492  00000+0  21665-3 0  9990
2 29930  99.0332 337.8341 0164351 109.2386  51.4973 14.20963723994018
FENGYUN 1C DEB          
1 29931U 99025JD  26088.09511405  .00000405  00000+0  28240-3 0  9995
2 29931  98.8444 125.6522 0032439 154.9064 229.0263 14.03962312983056
FENGYUN 1C DEB          
1 29932U 99025JE  26088.02706006  .00000540  00000+0  28831-3 0  9998
2 29932  98.6326 100.5910 0038596 123.5633 261.7018 14.16913958990898
FENGYUN 1C DEB          
1 29933U 99025JF  26087.80030760  .00022137  00000+0  36553-2 0  9996
2 29933  98.7447 203.2503 0002817  22.0432 137.1118 14.70405264   604
FENGYUN 1C DEB          
1 29934U 99025JG  26088.12570486  .00003520  00000+0  62451-3 0  9999
2 29934  98.8852 148.5114 0098659 285.0977  73.9326 14.64851013 13263
FENGYUN 1C DEB          
1 29935U 99025JH  26088.12234389  .00000192  00000+0  11022-3 0  9999
2 29935  98.4409 149.6616 0149428 270.4605 107.8518 14.14291245990460
