[{"OBJECT_NAME":"FENGYUN 1C DEB","OBJECT_ID":"1999-025HR","EPOCH":"2026-03-28T22:33:28.618848","MEAN_MOTION":13.85186935,"ECCENTRICITY":0.0138396,"INCLINATION":98.4949,"RA_OF_ASC_NODE":237.3458,"ARG_OF_PERICENTER":53.0935,"MEAN_ANOMALY":67.1435,"EPHEMERIS_TYPE":0,"CLASSIFICATION_TYPE":"U","NORAD_CAT_ID":29919,"ELEMENT_SET_NO":999,"REV_AT_EPOCH":97005,"BSTAR":0.00016335,"MEAN_MOTION_DOT":1.62e-6,"MEAN_MOTION_DDOT":0},{"OBJECT_NAME":"FENGYUN 1C DEB","OBJECT_ID":"1999-025HS","EPOCH":"2026-03-29T00:34:14.551392","MEAN_MOTION":14.04016843,"ECCENTRICITY":0.0125521,"INCLINATION":98.3871,"RA_OF_ASC_NODE":299.4358,"ARG_OF_PERICENTER":339.9629,"MEAN_ANOMALY":19.6635,"EPHEMERIS_TYPE":0,"CLASSIFICATION_TYPE":"U","NORAD_CAT_ID":29920,"ELEMENT_SET_NO":999,"REV_AT_EPOCH":97779,"BSTAR":0.000857,"MEAN_MOTION_DOT":1.414e-5,"MEAN_MOTION_DDOT":0},{"OBJECT_NAME":"FENGYUN 1C DEB","OBJECT_ID":"1999-025HT","EPOCH":"2026-03-28T23:49:23.633760","MEAN_MOTION":14.06791698,"ECCENTRICITY":0.0046501,"INCLINATION":98.788,"RA_OF_ASC_NODE":96.0761,"ARG_OF_PERICENTER":129.5614,"MEAN_ANOMALY":285.9135,"EPHEMERIS_TYPE":0,"CLASSIFICATION_TYPE":"U","NORAD_CAT_ID":29921,"ELEMENT_SET_NO":999,"REV_AT_EPOCH":98370,"BSTAR":0.00023683,"MEAN_MOTION_DOT":3.55e-6,"MEAN_MOTION_DDOT":0},{"OBJECT_NAME":"FENGYUN 1C DEB","OBJECT_ID":"1999-025HU","EPOCH":"2026-03-29T03:19:11.617824","MEAN_MOTION":13.98645164,"ECCENTRICITY":0.0093656,"INCLINATION":99.115,"RA_OF_ASC_NODE":150.0883,"ARG_OF_PERICENTER":74.8995,"MEAN_ANOMALY":286.2507,"EPHEMERIS_TYPE":0,"CLASSIFICATION_TYPE":"U","NORAD_CAT_ID":29922,"ELEMENT_SET_NO":999,"REV_AT_EPOCH":97928,"BSTAR":5.2082e-6,"MEAN_MOTION_DOT":-3.6e-7,"MEAN_MOTION_DDOT":0},{"OBJECT_NAME":"FENGYUN 1C DEB","OBJECT_ID":"1999-025HV","EPOCH":"2026-03-29T00:20:29.753664","MEAN_MOTION":14.14120398,"ECCENTRICITY":0.0016393,"INCLINATION":98.688,"RA_OF_ASC_NODE":98.3475,"ARG_OF_PERICENTER":225.2534,"MEAN_ANOMALY":191.5416,"EPHEMERIS_TYPE":0,"CLASSIFICATION_TYPE":"U","NORAD_CAT_ID":29923,"ELEMENT_SET_NO":999,"REV_AT_EPOCH":98777,"BSTAR":0.00047654,"MEAN_MOTION_DOT":8.66e-6,"MEAN_MOTION_DDOT":0},{"OBJECT_NAME":"FENGYUN 1C DEB","OBJECT_ID":"1999-025HW","EPOCH":"2026-03-28T18:55:52.395168","MEAN_MOTION":14.08923591,"ECCENTRICITY":0.00261044,"INCLINATION":98.7313,"RA_OF_ASC_NODE":102.4543,"ARG_OF_PERICENTER":320.2073,"MEAN_ANOMALY":218.7665,"EPHEMERIS_TYPE":0,"CLASSIFICATION_TYPE":"U","NORAD_CAT_ID":29924,"ELEMENT_SET_NO":999,"REV_AT_EPOCH":98701,"BSTAR":0.00013944243,"MEAN_MOTION_DOT":1.99e-6,"MEAN_MOTION_DDOT":0},{"OBJECT_NAME":"FENGYUN 1C DEB","OBJECT_ID":"1999-025HY","EPOCH":"2026-03-28T22:14:16.569024","MEAN_MOTION":14.33673479,"ECCENTRICITY":0.0248048,"INCLINATION":98.2947,"RA_OF_ASC_NODE":77.4752,"ARG_OF_PERICENTER":343.4669,"MEAN_ANOMALY":75.3001,"EPHEMERIS_TYPE":0,"CLASSIFICATION_TYPE":"U","NORAD_CAT_ID":29926,"ELEMENT_SET_NO":999,"REV_AT_EPOCH":101,"BSTAR":0.00045113,"MEAN_MOTION_DOT":1.715e-5,"MEAN_MOTION_DDOT":0},{"OBJECT_NAME":"FENGYUN 1C DEB","OBJECT_ID":"1999-025HZ","EPOCH":"2026-03-29T00:50:55.116960","MEAN_MOTION":14.79037686,"ECCENTRICITY":0.0016472,"INCLINATION":99.072,"RA_OF_ASC_NODE":130.1632,"ARG_OF_PERICENTER":232.6422,"MEAN_ANOMALY":188.4363,"EPHEMERIS_TYPE":0,"CLASSIFICATION_TYPE":"U","NORAD_CAT_ID":29927,"ELEMENT_SET_NO":999,"REV_AT_EPOCH":215,"BSTAR":0.0024284,"MEAN_MOTION_DOT":0.00017976,"MEAN_MOTION_DDOT":0},{"OBJECT_NAME":"FENGYUN 1C DEB","OBJECT_ID":"1999-025JA","EPOCH":"2026-03-29T00:30:12.377376","MEAN_MOTION":13.88276527,"ECCENTRICITY":0.0143267,"INCLINATION":99.5724,"RA_OF_ASC_NODE":120.0992,"ARG_OF_PERICENTER":179.6809,"MEAN_ANOMALY":212.7366,"EPHEMERIS_TYPE":0,"CLASSIFICATION_TYPE":"U","NORAD_CAT_ID":29928,"ELEMENT_SET_NO":999,"REV_AT_EPOCH":96966,"BSTAR":0.00062846,"MEAN_MOTION_DOT":7.69e-6,"MEAN_MOTION_DDOT":0},{"OBJECT_NAME":"FENGYUN 1C DEB","OBJECT_ID":"1999-025JB","EPOCH":"2026-03-29T00:40:40.471680","MEAN_MOTION":14.01904351,"ECCENTRICITY":0.012856,"INCLINATION":98.6286,"RA_OF_ASC_NODE":6.5477,"ARG_OF_PERICENTER":239.8523,"MEAN_ANOMALY":140.2985,"EPHEMERIS_TYPE":0,"CLASSIFICATION_TYPE":"U","NORAD_CAT_ID":29929,"ELEMENT_SET_NO":999,"REV_AT_EPOCH":97445,"BSTAR":0.0011362,"MEAN_MOTION_DOT":1.818e-5,"MEAN_MOTION_DDOT":0},{"OBJECT_NAME":"FENGYUN 1C DEB","OBJECT_ID":"1999-025JC","EPOCH":"2026-03-29T02:53:01.740192","MEAN_MOTION":14.20963723,"ECCENTRICITY":0.0164351,"INCLINATION":99.0332,"RA_OF_ASC_NODE":337.8341,"ARG_OF_PERICENTER":109.2386,"MEAN_ANOMALY":51.4973,"EPHEMERIS_TYPE":0,"CLASSIFICATION_TYPE":"U","NORAD_CAT_ID":29930,"ELEMENT_SET_NO":999,"REV_AT_EPOCH":99401,"BSTAR":0.00021665,"MEAN_MOTION_DOT":4.92e-6,"MEAN_MOTION_DDOT":0},{"OBJECT_NAME":"FENGYUN 1C DEB","OBJECT_ID":"1999-025JD","EPOCH":"2026-03-29T02:16:57.853920","MEAN_MOTION":14.03962312,"ECCENTRICITY":0.0032439,"INCLINATION":98.8444,"RA_OF_ASC_NODE":125.6522,"ARG_OF_PERICENTER":154.9064,"MEAN_ANOMALY":229.0263,"EPHEMERIS_TYPE":0,"CLASSIFICATION_TYPE":"U","NORAD_CAT_ID":29931,"ELEMENT_SET_NO":999,"REV_AT_EPOCH":98305,"BSTAR":0.0002824,"MEAN_MOTION_DOT":4.05e-6,"MEAN_MOTION_DDOT":0},{"OBJECT_NAME":"FENGYUN 1C DEB","OBJECT_ID":"1999-025JE","EPOCH":"2026-03-29T00:38:57.989184","MEAN_MOTION":14.16913958,"ECCENTRICITY":0.0038596,"INCLINATION":98.6326,"RA_OF_ASC_NODE":100.591,"ARG_OF_PERICENTER":123.5633,"MEAN_ANOMALY":261.7018,"EPHEMERIS_TYPE":0,"CLASSIFICATION_TYPE":"U","NORAD_CAT_ID":29932,"ELEMENT_SET_NO":999,"REV_AT_EPOCH":99089,"BSTAR":0.00028831,"MEAN_MOTION_DOT":5.4e-6,"MEAN_MOTION_DDOT":0},{"OBJECT_NAME":"FENGYUN 1C DEB","OBJECT_ID":"1999-025JF","EPOCH":"2026-03-28T19:12:26.576640","MEAN_MOTION":14.70405264,"ECCENTRICITY":0.00028174,"INCLINATION":98.7447,"RA_OF_ASC_NODE":203.2503,"ARG_OF_PERICENTER":22.0432,"MEAN_ANOMALY":137.1118,"EPHEMERIS_TYPE":0,"CLASSIFICATION_TYPE":"U","NORAD_CAT_ID":29933,"ELEMENT_SET_NO":999,"REV_AT_EPOCH":60,"BSTAR":0.0036552951,"MEAN_MOTION_DOT":0.00022137,"MEAN_MOTION_DDOT":0},{"OBJECT_NAME":"FENGYUN 1C DEB","OBJECT_ID":"1999-025JG","EPOCH":"2026-03-29T03:01:00.899904","MEAN_MOTION":14.64851013,"ECCENTRICITY":0.0098659,"INCLINATION":98.8852,"RA_OF_ASC_NODE":148.5114,"ARG_OF_PERICENTER":285.0977,"MEAN_ANOMALY":73.9326,"EPHEMERIS_TYPE":0,"CLASSIFICATION_TYPE":"U","NORAD_CAT_ID":29934,"ELEMENT_SET_NO":999,"REV_AT_EPOCH":1326,"BSTAR":0.00062451,"MEAN_MOTION_DOT":3.52e-5,"MEAN_MOTION_DDOT":0},{"OBJECT_NAME":"FENGYUN 1C DEB","OBJECT_ID":"1999-025JH","EPOCH":"2026-03-29T02:56:10.512096","MEAN_MOTION":14.14291245,"ECCENTRICITY":0.0149428,"INCLINATION":98.4409,"RA_OF_ASC_NODE":149.6616,"ARG_OF_PERICENTER":270.4605,"MEAN_ANOMALY":107.8518,"EPHEMERIS_TYPE":0,"CLASSIFICATION_TYPE":"U","NORAD_CAT_ID":29935,"ELEMENT_SET_NO":999,"REV_AT_EPOCH":99046,"BSTAR":0.00011022,"MEAN_MOTION_DOT":1.92e-6,"MEAN_MOTION_DDOT":0}]
